{
  "type": "FeatureCollection",
  "features": [
    {
      "type": "Feature",
      "properties": {
        "norad_id": 31485,
        "name": "FENGYUN 1C DEB",
        "group": "fengyun-1c-debris",
        "lat": -40.10015745511874,
        "lon": 0.2603703473493632,
        "alt_km": 977.6860188293458,
        "timestamp": "2025-12-26T11:25:45.476457+00:00",
        "meta_object_name": "FENGYUN 1C DEB",
        "meta_object_id": "1999-025BVZ",
        "meta_epoch": "2025-12-24T09:54:22.685184",
        "meta_mean_motion": 13.40097736,
        "meta_eccentricity": 0.04462437,
        "meta_inclination": 102.7177,
        "meta_ra_of_asc_node": 188.6326,
        "meta_arg_of_pericenter": 293.7591,
        "meta_mean_anomaly": 61.7335,
        "meta_ephemeris_type": 0,
        "meta_classification_type": "U",
        "meta_norad_cat_id": 31485,
        "meta_element_set_no": 999,
        "meta_rev_at_epoch": 90601,
        "meta_bstar": 0.0027619482,
        "meta_mean_motion_dot": 2.633e-05,
        "meta_mean_motion_ddot": 0,
        "tle_line1": "1 31485U 99025BVZ 25358.41276256  .00002633  00000+0  27619-2 0  9992",
        "tle_line2": "2 31485 102.7177 188.6326 0446243 293.7591  61.7335 13.40097736906012"
      },
      "geometry": {
        "type": "Point",
        "coordinates": [
          0.2603703473493632,
          -40.10015745511874
        ]
      }
    },
    {
      "type": "Feature",
      "properties": {
        "norad_id": 31487,
        "name": "FENGYUN 1C DEB",
        "group": "fengyun-1c-debris",
        "lat": -44.14931815210869,
        "lon": -173.940228763799,
        "alt_km": 841.6827348320567,
        "timestamp": "2025-12-26T11:25:45.476466+00:00",
        "meta_object_name": "FENGYUN 1C DEB",
        "meta_object_id": "1999-025BWB",
        "meta_epoch": "2025-12-24T18:29:42.583200",
        "meta_mean_motion": 13.97784189,
        "meta_eccentricity": 0.01193328,
        "meta_inclination": 102.4136,
        "meta_ra_of_asc_node": 171.4168,
        "meta_arg_of_pericenter": 277.9548,
        "meta_mean_anomaly": 97.273,
        "meta_ephemeris_type": 0,
        "meta_classification_type": "U",
        "meta_norad_cat_id": 31487,
        "meta_element_set_no": 999,
        "meta_rev_at_epoch": 94580,
        "meta_bstar": 0.0017084916,
        "meta_mean_motion_dot": 2.495e-05,
        "meta_mean_motion_ddot": 0,
        "tle_line1": "1 31487U 99025BWB 25358.77063175  .00002495  00000+0  17085-2 0  9999",
        "tle_line2": "2 31487 102.4136 171.4168 0119332 277.9548  97.2730 13.97784189945802"
      },
      "geometry": {
        "type": "Point",
        "coordinates": [
          -173.940228763799,
          -44.14931815210869
        ]
      }
    },
    {
      "type": "Feature",
      "properties": {
        "norad_id": 31491,
        "name": "FENGYUN 1C DEB",
        "group": "fengyun-1c-debris",
        "lat": 34.57917852290162,
        "lon": -96.7690193600657,
        "alt_km": 867.069960551361,
        "timestamp": "2025-12-26T11:25:45.476475+00:00",
        "meta_object_name": "FENGYUN 1C DEB",
        "meta_object_id": "1999-025BWE",
        "meta_epoch": "2025-12-25T23:24:11.230272",
        "meta_mean_motion": 14.17348825,
        "meta_eccentricity": 0.0050191,
        "meta_inclination": 99.3079,
        "meta_ra_of_asc_node": 269.1977,
        "meta_arg_of_pericenter": 230.8309,
        "meta_mean_anomaly": 128.84,
        "meta_ephemeris_type": 0,
        "meta_classification_type": "U",
        "meta_norad_cat_id": 31491,
        "meta_element_set_no": 999,
        "meta_rev_at_epoch": 63915,
        "meta_bstar": 0.0017221,
        "meta_mean_motion_dot": 3.48e-05,
        "meta_mean_motion_ddot": 0,
        "tle_line1": "1 31491U 99025BWE 25359.97512998  .00003480  00000+0  17221-2 0  9996",
        "tle_line2": "2 31491  99.3079 269.1977 0050191 230.8309 128.8400 14.17348825639159"
      },
      "geometry": {
        "type": "Point",
        "coordinates": [
          -96.7690193600657,
          34.57917852290162
        ]
      }
    },
    {
      "type": "Feature",
      "properties": {
        "norad_id": 31492,
        "name": "FENGYUN 1C DEB",
        "group": "fengyun-1c-debris",
        "lat": 58.25625810947434,
        "lon": 153.08665356207374,
        "alt_km": 653.8901151015289,
        "timestamp": "2025-12-26T11:25:45.476484+00:00",
        "meta_object_name": "FENGYUN 1C DEB",
        "meta_object_id": "1999-025BWF",
        "meta_epoch": "2025-12-22T22:16:59.719872",
        "meta_mean_motion": 14.71117312,
        "meta_eccentricity": 0.00645708,
        "meta_inclination": 98.856,
        "meta_ra_of_asc_node": 163.8283,
        "meta_arg_of_pericenter": 336.971,
        "meta_mean_anomaly": 22.8602,
        "meta_ephemeris_type": 0,
        "meta_classification_type": "U",
        "meta_norad_cat_id": 31492,
        "meta_element_set_no": 999,
        "meta_rev_at_epoch": 96656,
        "meta_bstar": 0.0033267446,
        "meta_mean_motion_dot": 0.00021138,
        "meta_mean_motion_ddot": 0,
        "tle_line1": "1 31492U 99025BWF 25356.92846898  .00021138  00000+0  33267-2 0  9996",
        "tle_line2": "2 31492  98.8560 163.8283 0064570 336.9710  22.8602 14.71117312966569"
      },
      "geometry": {
        "type": "Point",
        "coordinates": [
          153.08665356207374,
          58.25625810947434
        ]
      }
    },
    {
      "type": "Feature",
      "properties": {
        "norad_id": 31493,
        "name": "FENGYUN 1C DEB",
        "group": "fengyun-1c-debris",
        "lat": 58.25615107824636,
        "lon": 144.471166840294,
        "alt_km": 831.406114427913,
        "timestamp": "2025-12-26T11:25:45.476505+00:00",
        "meta_object_name": "FENGYUN 1C DEB",
        "meta_object_id": "1999-025BWG",
        "meta_epoch": "2025-12-22T17:13:02.407872",
        "meta_mean_motion": 13.92988656,
        "meta_eccentricity": 0.01172987,
        "meta_inclination": 100.137,
        "meta_ra_of_asc_node": 303.5504,
        "meta_arg_of_pericenter": 149.0883,
        "meta_mean_anomaly": 211.7248,
        "meta_ephemeris_type": 0,
        "meta_classification_type": "U",
        "meta_norad_cat_id": 31493,
        "meta_element_set_no": 999,
        "meta_rev_at_epoch": 60005,
        "meta_bstar": 0.00084589996,
        "meta_mean_motion_dot": 1.111e-05,
        "meta_mean_motion_ddot": 0,
        "tle_line1": "1 31493U 99025BWG 25356.71738898  .00001111  00000+0  84590-3 0  9999",
        "tle_line2": "2 31493 100.1370 303.5504 0117298 149.0883 211.7248 13.92988656600058"
      },
      "geometry": {
        "type": "Point",
        "coordinates": [
          144.471166840294,
          58.25615107824636
        ]
      }
    },
    {
      "type": "Feature",
      "properties": {
        "norad_id": 31495,
        "name": "FENGYUN 1C DEB",
        "group": "fengyun-1c-debris",
        "lat": -60.161126516910834,
        "lon": -109.45300611231673,
        "alt_km": 818.6274569266379,
        "timestamp": "2025-12-26T11:25:45.476514+00:00",
        "meta_object_name": "FENGYUN 1C DEB",
        "meta_object_id": "1999-025BWJ",
        "meta_epoch": "2025-12-20T09:32:47.149152",
        "meta_mean_motion": 14.29252624,
        "meta_eccentricity": 0.00255899,
        "meta_inclination": 99.12,
        "meta_ra_of_asc_node": 227.9275,
        "meta_arg_of_pericenter": 154.7696,
        "meta_mean_anomaly": 205.474,
        "meta_ephemeris_type": 0,
        "meta_classification_type": "U",
        "meta_norad_cat_id": 31495,
        "meta_element_set_no": 999,
        "meta_rev_at_epoch": 63500,
        "meta_bstar": 0.00086082116,
        "meta_mean_motion_dot": 2.149e-05,
        "meta_mean_motion_ddot": 0,
        "tle_line1": "1 31495U 99025BWJ 25354.39776793  .00002149  00000+0  86082-3 0  9999",
        "tle_line2": "2 31495  99.1200 227.9275 0025589 154.7696 205.4740 14.29252624635009"
      },
      "geometry": {
        "type": "Point",
        "coordinates": [
          -109.45300611231673,
          -60.161126516910834
        ]
      }
    },
    {
      "type": "Feature",
      "properties": {
        "norad_id": 31497,
        "name": "FENGYUN 1C DEB",
        "group": "fengyun-1c-debris",
        "lat": -43.20235843586749,
        "lon": 155.7692319642045,
        "alt_km": 741.1939439671305,
        "timestamp": "2025-12-26T11:25:45.476523+00:00",
        "meta_object_name": "FENGYUN 1C DEB",
        "meta_object_id": "1999-025BWL",
        "meta_epoch": "2025-12-20T04:29:02.353920",
        "meta_mean_motion": 14.39239205,
        "meta_eccentricity": 0.01673435,
        "meta_inclination": 98.371,
        "meta_ra_of_asc_node": 337.5747,
        "meta_arg_of_pericenter": 320.7302,
        "meta_mean_anomaly": 96.6636,
        "meta_ephemeris_type": 0,
        "meta_classification_type": "U",
        "meta_norad_cat_id": 31497,
        "meta_element_set_no": 999,
        "meta_rev_at_epoch": 97662,
        "meta_bstar": 0.00018663983,
        "meta_mean_motion_dot": 6.31e-06,
        "meta_mean_motion_ddot": 0,
        "tle_line1": "1 31497U 99025BWL 25354.18683280  .00000631  00000+0  18664-3 0  9991",
        "tle_line2": "2 31497  98.3710 337.5747 0167343 320.7302  96.6636 14.39239205976625"
      },
      "geometry": {
        "type": "Point",
        "coordinates": [
          155.7692319642045,
          -43.20235843586749
        ]
      }
    }
  ]
}